start=new Date('2022-11-26T00:00:00.000Z').valueOf();
sats=[{"OBJECT_NAME":"STARLINK-3297","MEAN_MOTION_DDOT":"0.0000000000000","REF_FRAME":"TEME","LAUNCH_DATE":"2021-12-18","MEAN_MOTION_DOT":"0.00001205","PERIOD":"95.438","REV_AT_EPOCH":"5530","TIME_SYSTEM":"UTC","RCS_SIZE":"LARGE","CENTER_NAME":"EARTH","EPOCH":"2022-11-25T18:07:58.499616","OBJECT_TYPE":"PAYLOAD","CLASSIFICATION_TYPE":"U","ARG_OF_PERICENTER":"33.6258","OBJECT_ID":"2021-125D","SITE":"AFWTR","EPHEMERIS_TYPE":"0","RA_OF_ASC_NODE":"245.8309","BSTAR":"0.00009382800000","MEAN_ELEMENT_THEORY":"SGP4","FILE":"3670141","ELEMENT_SET_NO":"999","TLE_LINE2":"2 50159  53.2168 245.8309 0002701  33.6258 326.4905 15.08839139 55304","TLE_LINE1":"1 50159U 21125D   22329.75553819  .00001205  00000-0  93828-4 0  9994","COUNTRY_CODE":"US","SEMIMAJOR_AXIS":"6917.883","APOAPSIS":"541.617","ECCENTRICITY":"0.00027010","PERIAPSIS":"537.880","GP_ID":"218822034","DECAY_DATE":null,"MEAN_MOTION":"15.08839139","NORAD_CAT_ID":"50159","INCLINATION":"53.2168","MEAN_ANOMALY":"326.4905"},{"APOAPSIS":"541.818","SEMIMAJOR_AXIS":"6917.889","COUNTRY_CODE":"US","ELEMENT_SET_NO":"999","TLE_LINE2":"2 50160  53.2166 245.8050 0002983  31.1278 328.9891 15.08837163 55311","TLE_LINE1":"1 50160U 21125E   22329.76290698  .00002093  00000-0  14958-3 0  9992","FILE":"3670141","MEAN_ELEMENT_THEORY":"SGP4","BSTAR":"0.00014958000000","RA_OF_ASC_NODE":"245.8050","MEAN_ANOMALY":"328.9891","INCLINATION":"53.2166","NORAD_CAT_ID":"50160","MEAN_MOTION":"15.08837163","DECAY_DATE":null,"GP_ID":"218821291","PERIAPSIS":"537.690","ECCENTRICITY":"0.00029830","RCS_SIZE":"LARGE","TIME_SYSTEM":"UTC","REV_AT_EPOCH":"5531","PERIOD":"95.438","MEAN_MOTION_DOT":"0.00002093","LAUNCH_DATE":"2021-12-18","REF_FRAME":"TEME","MEAN_MOTION_DDOT":"0.0000000000000","OBJECT_NAME":"STARLINK-3288","EPHEMERIS_TYPE":"0","SITE":"AFWTR","OBJECT_ID":"2021-125E","ARG_OF_PERICENTER":"31.1278","CLASSIFICATION_TYPE":"U","OBJECT_TYPE":"PAYLOAD","EPOCH":"2022-11-25T18:18:35.163072","CENTER_NAME":"EARTH"},{"PERIOD":"95.437","LAUNCH_DATE":"2021-12-18","MEAN_MOTION_DOT":"0.00001987","REF_FRAME":"TEME","MEAN_MOTION_DDOT":"0.0000000000000","OBJECT_NAME":"STARLINK-3304","RCS_SIZE":"LARGE","TIME_SYSTEM":"UTC","REV_AT_EPOCH":"5530","CENTER_NAME":"EARTH","OBJECT_ID":"2021-125F","SITE":"AFWTR","EPHEMERIS_TYPE":"0","CLASSIFICATION_TYPE":"U","ARG_OF_PERICENTER":"29.4947","EPOCH":"2022-11-25T18:23:52.427328","OBJECT_TYPE":"PAYLOAD","COUNTRY_CODE":"US","TLE_LINE2":"2 50161  53.2180 245.7842 0003319  29.4947 330.6232 15.08847961 55308","ELEMENT_SET_NO":"999","TLE_LINE1":"1 50161U 21125F   22329.76657902  .00001987  00000-0  14288-3 0  9995","FILE":"3670141","MEAN_ELEMENT_THEORY":"SGP4","BSTAR":"0.00014288000000","RA_OF_ASC_NODE":"245.7842","APOAPSIS":"542.017","SEMIMAJOR_AXIS":"6917.856","GP_ID":"218821541","DECAY_DATE":null,"PERIAPSIS":"537.425","ECCENTRICITY":"0.00033190","MEAN_ANOMALY":"330.6232","INCLINATION":"53.2180","NORAD_CAT_ID":"50161","MEAN_MOTION":"15.08847961"},{"RCS_SIZE":"LARGE","REV_AT_EPOCH":"5729","TIME_SYSTEM":"UTC","LAUNCH_DATE":"2021-12-18","MEAN_MOTION_DOT":"0.00019231","PERIOD":"92.913","MEAN_MOTION_DDOT":"0.0000000000000","OBJECT_NAME":"STARLINK-3303","REF_FRAME":"TEME","ARG_OF_PERICENTER":"39.8663","CLASSIFICATION_TYPE":"U","EPHEMERIS_TYPE":"0","SITE":"AFWTR","OBJECT_ID":"2021-125G","OBJECT_TYPE":"PAYLOAD","EPOCH":"2022-11-25T15:37:27.690816","CENTER_NAME":"EARTH","SEMIMAJOR_AXIS":"6795.345","APOAPSIS":"418.362","ELEMENT_SET_NO":"999","TLE_LINE2":"2 50162  53.2158 106.2772 0001695  39.8663 320.2472 15.49834960 57293","TLE_LINE1":"1 50162U 21125G   22329.65101494  .00019231  00000-0  34655-3 0  9995","COUNTRY_CODE":"US","BSTAR":"0.00034655000000","RA_OF_ASC_NODE":"106.2772","MEAN_ELEMENT_THEORY":"SGP4","FILE":"3670141","NORAD_CAT_ID":"50162","INCLINATION":"53.2158","MEAN_ANOMALY":"320.2472","MEAN_MOTION":"15.49834960","DECAY_DATE":null,"GP_ID":"218822284","ECCENTRICITY":"0.00016950","PERIAPSIS":"416.059"},{"RCS_SIZE":"LARGE","REV_AT_EPOCH":"5553","TIME_SYSTEM":"UTC","LAUNCH_DATE":"2021-12-18","MEAN_MOTION_DOT":"-0.00000281","PERIOD":"95.438","MEAN_MOTION_DDOT":"0.0000000000000","OBJECT_NAME":"STARLINK-3306","REF_FRAME":"TEME","CLASSIFICATION_TYPE":"U","ARG_OF_PERICENTER":"33.8596","OBJECT_ID":"2021-125H","SITE":"AFWTR","EPHEMERIS_TYPE":"0","EPOCH":"2022-11-25T10:04:28.793280","OBJECT_TYPE":"PAYLOAD","CENTER_NAME":"EARTH","SEMIMAJOR_AXIS":"6917.896","APOAPSIS":"541.596","TLE_LINE1":"1 50163U 21125H   22329.41977770 -.00000281  00000-0  46942-6 0  9999","TLE_LINE2":"2 50163  53.2180 227.3416 0002652  33.8596 326.2565 15.08834897 55530","ELEMENT_SET_NO":"999","COUNTRY_CODE":"US","BSTAR":"0.00000046942000","RA_OF_ASC_NODE":"227.3416","FILE":"3669850","MEAN_ELEMENT_THEORY":"SGP4","NORAD_CAT_ID":"50163","INCLINATION":"53.2180","MEAN_ANOMALY":"326.2565","MEAN_MOTION":"15.08834897","GP_ID":"218763095","DECAY_DATE":null,"ECCENTRICITY":"0.00026520","PERIAPSIS":"537.926"},{"RCS_SIZE":"LARGE","REV_AT_EPOCH":"5218","TIME_SYSTEM":"UTC","MEAN_MOTION_DOT":"0.00002291","LAUNCH_DATE":"2021-12-18","PERIOD":"95.437","OBJECT_NAME":"STARLINK-3298","MEAN_MOTION_DDOT":"0.0000000000000","REF_FRAME":"TEME","CLASSIFICATION_TYPE":"U","ARG_OF_PERICENTER":"32.0586","OBJECT_ID":"2021-125K","SITE":"AFWTR","EPHEMERIS_TYPE":"0","EPOCH":"2022-11-25T11:41:07.948320","OBJECT_TYPE":"PAYLOAD","CENTER_NAME":"EARTH","SEMIMAJOR_AXIS":"6917.869","APOAPSIS":"541.467","TLE_LINE1":"1 50165U 21125K   22329.48689755  .00002291  00000-0  16202-3 0  9996","TLE_LINE2":"2 50165  53.2174 247.0542 0002505  32.0586 328.0559 15.08843805 52181","ELEMENT_SET_NO":"999","COUNTRY_CODE":"US","BSTAR":"0.00016202000000","RA_OF_ASC_NODE":"247.0542","FILE":"3669838","MEAN_ELEMENT_THEORY":"SGP4","NORAD_CAT_ID":"50165","INCLINATION":"53.2174","MEAN_ANOMALY":"328.0559","MEAN_MOTION":"15.08843805","GP_ID":"218738559","DECAY_DATE":null,"ECCENTRICITY":"0.00025050","PERIAPSIS":"538.001"},{"CENTER_NAME":"EARTH","ARG_OF_PERICENTER":"32.6426","CLASSIFICATION_TYPE":"U","EPHEMERIS_TYPE":"0","SITE":"AFWTR","OBJECT_ID":"2021-125L","OBJECT_TYPE":"PAYLOAD","EPOCH":"2022-11-25T18:35:47.746752","MEAN_MOTION_DOT":"0.00001705","LAUNCH_DATE":"2021-12-18","PERIOD":"95.437","OBJECT_NAME":"STARLINK-3305","MEAN_MOTION_DDOT":"0.0000000000000","REF_FRAME":"TEME","RCS_SIZE":"LARGE","REV_AT_EPOCH":"5544","TIME_SYSTEM":"UTC","DECAY_DATE":null,"GP_ID":"218821042","ECCENTRICITY":"0.00029890","PERIAPSIS":"537.673","NORAD_CAT_ID":"50166","INCLINATION":"53.2174","MEAN_ANOMALY":"327.4751","MEAN_MOTION":"15.08841528","TLE_LINE1":"1 50166U 21125L   22329.77485818  .00001705  00000-0  12523-3 0  9994","TLE_LINE2":"2 50166  53.2174 235.7488 0002989  32.6426 327.4751 15.08841528 55449","ELEMENT_SET_NO":"999","COUNTRY_CODE":"US","RA_OF_ASC_NODE":"235.7488","BSTAR":"0.00012523000000","FILE":"3670141","MEAN_ELEMENT_THEORY":"SGP4","SEMIMAJOR_AXIS":"6917.876","APOAPSIS":"541.808"},{"ECCENTRICITY":"0.00021000","PERIAPSIS":"538.300","DECAY_DATE":null,"GP_ID":"218821786","MEAN_MOTION":"15.08837531","NORAD_CAT_ID":"50167","INCLINATION":"53.2151","MEAN_ANOMALY":"322.2484","BSTAR":"0.00009297200000","RA_OF_ASC_NODE":"245.5968","FILE":"3670141","MEAN_ELEMENT_THEORY":"SGP4","ELEMENT_SET_NO":"999","TLE_LINE2":"2 50167  53.2151 245.5968 0002100  37.8655 322.2484 15.08837531 55314","TLE_LINE1":"1 50167U 21125M   22329.81073627  .00001192  00000-0  92972-4 0  9998","COUNTRY_CODE":"US","SEMIMAJOR_AXIS":"6917.888","APOAPSIS":"541.206","CENTER_NAME":"EARTH","OBJECT_TYPE":"PAYLOAD","EPOCH":"2022-11-25T19:27:27.613728","ARG_OF_PERICENTER":"37.8655","CLASSIFICATION_TYPE":"U","SITE":"AFWTR","EPHEMERIS_TYPE":"0","OBJECT_ID":"2021-125M","MEAN_MOTION_DDOT":"0.0000000000000","OBJECT_NAME":"STARLINK-3271","REF_FRAME":"TEME","MEAN_MOTION_DOT":"0.00001192","LAUNCH_DATE":"2021-12-18","PERIOD":"95.438","REV_AT_EPOCH":"5531","TIME_SYSTEM":"UTC","RCS_SIZE":"LARGE"},{"MEAN_ANOMALY":"332.1153","NORAD_CAT_ID":"50168","INCLINATION":"53.2177","MEAN_MOTION":"15.08832220","GP_ID":"218763595","DECAY_DATE":null,"PERIAPSIS":"537.750","ECCENTRICITY":"0.00029190","APOAPSIS":"541.789","SEMIMAJOR_AXIS":"6917.904","COUNTRY_CODE":"US","TLE_LINE2":"2 50168  53.2177 238.4429 0002919  27.9996 332.1153 15.08832220 55360","ELEMENT_SET_NO":"999","TLE_LINE1":"1 50168U 21125N   22329.17502080  .00000202  00000-0  30857-4 0  9993","MEAN_ELEMENT_THEORY":"SGP4","FILE":"3669850","BSTAR":"0.00003085700000","RA_OF_ASC_NODE":"238.4429","OBJECT_ID":"2021-125N","SITE":"AFWTR","EPHEMERIS_TYPE":"0","CLASSIFICATION_TYPE":"U","ARG_OF_PERICENTER":"27.9996","EPOCH":"2022-11-25T04:12:01.797120","OBJECT_TYPE":"PAYLOAD","CENTER_NAME":"EARTH","RCS_SIZE":"LARGE","TIME_SYSTEM":"UTC","REV_AT_EPOCH":"5536","PERIOD":"95.438","MEAN_MOTION_DOT":"0.00000202","LAUNCH_DATE":"2021-12-18","REF_FRAME":"TEME","MEAN_MOTION_DDOT":"0.0000000000000","OBJECT_NAME":"STARLINK-3296"},{"CENTER_NAME":"EARTH","EPOCH":"2022-11-25T11:26:33.150912","OBJECT_TYPE":"PAYLOAD","OBJECT_ID":"2021-125P","SITE":"AFWTR","EPHEMERIS_TYPE":"0","CLASSIFICATION_TYPE":"U","ARG_OF_PERICENTER":"34.3149","REF_FRAME":"TEME","MEAN_MOTION_DDOT":"0.0000000000000","OBJECT_NAME":"STARLINK-3301","PERIOD":"95.437","LAUNCH_DATE":"2021-12-18","MEAN_MOTION_DOT":"0.00003295","TIME_SYSTEM":"UTC","REV_AT_EPOCH":"5232","RCS_SIZE":"LARGE","PERIAPSIS":"537.707","ECCENTRICITY":"0.00028990","GP_ID":"218738301","DECAY_DATE":null,"MEAN_MOTION":"15.08850727","MEAN_ANOMALY":"325.8030","INCLINATION":"53.2158","NORAD_CAT_ID":"50169","FILE":"3669829","MEAN_ELEMENT_THEORY":"SGP4","BSTAR":"0.00022500000000","RA_OF_ASC_NODE":"237.0879","COUNTRY_CODE":"US","ELEMENT_SET_NO":"999","TLE_LINE2":"2 50169  53.2158 237.0879 0002899  34.3149 325.8030 15.08850727 52321","TLE_LINE1":"1 50169U 21125P   22329.47677258  .00003295  00000-0  22500-3 0  9997","APOAPSIS":"541.718","SEMIMAJOR_AXIS":"6917.848"}];
